NORAD_CAT_ID,OBJECT_NAME,OBJECT_TYPE,EPOCH,MEAN_MOTION,ECCENTRICITY,INCLINATION,RA_OF_ASC_NODE,ARG_OF_PERICENTER,MEAN_ANOMALY,BSTAR,MEAN_MOTION_DOT,MEAN_MOTION_DDOT,TLE_LINE0,TLE_LINE1,TLE_LINE2,SEMIMAJOR_AXIS,PERIOD,APOGEE,PERIGEE,DECAYED
56492.0,STARLINK-5846,PAYLOAD,2023-12-23 08:45:08,14.98316337,0.0002894,69.9989,339.9795,262.2971,97.786,-0.00019385,-2.404e-05,0.0,0 STARLINK-5846,1 56492U 23064AW  23357.36468143 -.00002404  00000-0 -19385-3 0  9997,2 56492  69.9989 339.9795 0002894 262.2971  97.7860 14.98316337 35308,6950.235,96.108,574.112,570.089,0.0
56492.0,STARLINK-5846,PAYLOAD,2023-12-24 03:58:44,14.98324983,0.0002365,70.0004,337.9599,263.249,96.84,0.00012962,1.454e-05,0.0,0 STARLINK-5846,1 56492U 23064AW  23358.16579317  .00001454  00000-0  12962-3 0  9998,2 56492  70.0004 337.9599 0002365 263.2490  96.8400 14.98324983 35787,6950.208,96.107,573.717,570.43,0.0
56492.0,STARLINK-5846,PAYLOAD,2023-12-24 08:47:08,14.98326027,0.0001961,70.0014,337.4552,254.9131,105.1811,0.00018971,2.171e-05,0.0,0 STARLINK-5846,1 56492U 23064AW  23358.36607112  .00002171  00000-0  18971-3 0  9998,2 56492  70.0014 337.4552 0001961 254.9131 105.1811 14.98326027 35457,6950.205,96.107,573.433,570.707,0.0
56492.0,STARLINK-5846,PAYLOAD,2023-12-25 04:00:44,14.98332564,0.0002568,69.9997,335.4338,257.1761,102.9111,0.00028099,3.261e-05,0.0,0 STARLINK-5846,1 56492U 23064AW  23359.16718163  .00003261  00000-0  28099-3 0  9999,2 56492  69.9997 335.4338 0002568 257.1761 102.9111 14.98332564 35936,6950.185,96.107,573.835,570.265,0.0
56492.0,STARLINK-5846,PAYLOAD,2023-12-25 08:49:08,14.98336468,0.0002492,69.9998,334.9285,256.04,104.0482,0.00032532,3.791e-05,0.0,0 STARLINK-5846,1 56492U 23064AW  23359.36745712  .00003791  00000-0  32532-3 0  9996,2 56492  69.9998 334.9285 0002492 256.0400 104.0482 14.98336468 35601,6950.173,96.107,573.77,570.306,0.0
56492.0,STARLINK-5846,PAYLOAD,2023-12-26 04:02:45,14.98334214,0.0002645,69.9998,332.9091,269.5111,90.5745,-8.0663e-05,-1.055e-05,0.0,0 STARLINK-5846,1 56492U 23064AW  23360.16858699 -.00001055  00000-0 -80663-4 0  9997,2 56492  69.9998 332.9091 0002645 269.5111  90.5745 14.98334214 36083,6950.18,96.107,573.883,570.207,0.0
56492.0,STARLINK-5846,PAYLOAD,2023-12-26 08:51:09,14.98337301,0.0002567,69.9999,332.4038,264.1458,95.9409,-3.7343e-05,-5.39e-06,0.0,0 STARLINK-5846,1 56492U 23064AW  23360.36886254 -.00000539  00000-0 -37343-4 0  9990,2 56492  69.9999 332.4038 0002567 264.1458  95.9409 14.98337301 35757,6950.17,96.107,573.819,570.251,0.0
56492.0,STARLINK-5846,PAYLOAD,2023-12-26 21:40:12,14.98357845,0.0002814,69.9998,331.057,260.9461,99.138,7.7707e-05,8.35e-06,0.0,0 STARLINK-5846,1 56492U 23064AW  23360.90291793  .00000835  00000-0  77707-4 0  9993,2 56492  69.9998 331.0570 0002814 260.9461  99.1380 14.98357845 35833,6950.107,96.105,573.928,570.016,0.0
56492.0,STARLINK-5846,PAYLOAD,2023-12-27 04:04:48,14.98295129,0.0002686,70.0004,330.385,245.7766,114.3113,-0.00061056,-7.364e-05,0.0,0 STARLINK-5846,1 56492U 23064AW  23361.17001112 -.00007364  00000-0 -61056-3 0  9992,2 56492  70.0004 330.3850 0002686 245.7766 114.3113 14.98295129 36238,6950.301,96.109,574.033,570.299,0.0
56492.0,STARLINK-5846,PAYLOAD,2023-12-27 08:53:13,14.9829277,0.0002685,70.0003,329.8789,252.931,107.1556,-0.00060536,-7.301e-05,0.0,0 STARLINK-5846,1 56492U 23064AW  23361.37029513 -.00007301  00000-0 -60536-3 0  9992,2 56492  70.0003 329.8789 0002685 252.9310 107.1556 14.98292770 35908,6950.308,96.109,574.039,570.307,0.0
56492.0,STARLINK-5846,PAYLOAD,2023-12-27 21:42:17,14.98299728,0.0003094,70.0013,328.5349,260.9529,99.128,-0.00026475,-3.248e-05,0.0,0 STARLINK-5846,1 56492U 23064AW  23361.90436842 -.00003248  00000-0 -26475-3 0  9998,2 56492  70.0013 328.5349 0003094 260.9529  99.1280 14.98299728 35985,6950.287,96.109,574.302,570.001,0.0
56492.0,STARLINK-5846,PAYLOAD,2023-12-28 04:06:49,14.98310036,0.0002332,70.0016,327.861,240.9367,119.1558,-0.00013727,-1.729e-05,0.0,0 STARLINK-5846,1 56492U 23064AW  23362.17140194 -.00001729  00000-0 -13727-3 0  9998,2 56492  70.0016 327.8610 0002332 240.9367 119.1558 14.98310036 36385,6950.255,96.108,573.74,570.499,0.0
56492.0,STARLINK-5846,PAYLOAD,2023-12-28 07:19:05,14.98311278,0.0002375,70.0014,327.5232,242.4906,117.6012,-0.0001209,-1.534e-05,0.0,0 STARLINK-5846,1 56492U 23064AW  23362.30492138 -.00001534  00000-0 -12090-3 0  9997,2 56492  70.0014 327.5232 0002375 242.4906 117.6012 14.98311278 36043,6950.251,96.108,573.766,570.465,0.0
56492.0,STARLINK-5846,PAYLOAD,2023-12-28 21:44:16,14.98351466,0.0003271,69.9989,326.0061,251.2904,108.79,-0.00046345,-5.622e-05,0.0,0 STARLINK-5846,1 56492U 23064AW  23362.90574723 -.00005622  00000-0 -46345-3 0  9996,2 56492  69.9989 326.0061 0003271 251.2904 108.7900 14.98351466 36137,6950.127,96.106,574.265,569.718,0.0
56492.0,STARLINK-5846,PAYLOAD,2023-12-29 04:08:48,14.98354308,0.000304,69.9998,325.3329,243.7839,116.3008,-0.00041288,-5.019e-05,0.0,0 STARLINK-5846,1 56492U 23064AW  23363.17278150 -.00005019  00000-0 -41288-3 0  9992,2 56492  69.9998 325.3329 0003040 243.7839 116.3008 14.98354308 36539,6950.118,96.105,574.096,569.87,0.0
56492.0,STARLINK-5846,PAYLOAD,2023-12-29 07:21:04,14.98355116,0.0003075,69.9999,324.9975,246.5208,113.5628,-0.00032672,-3.992e-05,0.0,0 STARLINK-5846,1 56492U 23064AW  23363.30629745 -.00003992  00000-0 -32672-3 0  9992,2 56492  69.9999 324.9975 0003075 246.5208 113.5628 14.98355116 36198,6950.115,96.105,574.117,569.843,0.0
56492.0,STARLINK-5846,PAYLOAD,2023-12-29 18:34:01,14.98311442,0.0003014,69.9998,323.8189,249.0264,111.0573,0.00056794,6.687e-05,0.0,0 STARLINK-5846,1 56492U 23064AW  23363.77362757  .00006687  00000-0  56794-3 0  9993,2 56492  69.9998 323.8189 0003014 249.0264 111.0573 14.98311442 36629,6950.25,96.108,574.21,570.02,0.0
56492.0,STARLINK-5846,PAYLOAD,2023-12-29 21:46:17,14.98332592,0.0003147,69.9996,323.4826,249.2462,110.836,0.00022048,2.539e-05,0.0,0 STARLINK-5846,1 56492U 23064AW  23363.90714304  .00002539  00000-0  22048-3 0  9994,2 56492  69.9996 323.4826 0003147 249.2462 110.8360 14.98332592 36282,6950.185,96.107,574.237,569.863,0.0
56492.0,STARLINK-5846,PAYLOAD,2023-12-30 04:10:49,14.98335502,0.0003106,69.9996,322.809,248.3636,111.7193,0.0002373,2.74e-05,0.0,0 STARLINK-5846,1 56492U 23064AW  23364.17418003  .00002740  00000-0  23730-3 0  9994,2 56492  69.9996 322.8090 0003106 248.3636 111.7193 14.98335502 36688,6950.176,96.107,574.2,569.882,0.0
56492.0,STARLINK-5846,PAYLOAD,2023-12-30 07:23:04,14.98339136,0.0003072,69.9997,322.4728,248.1532,111.9301,0.00026779,3.104e-05,0.0,0 STARLINK-5846,1 56492U 23064AW  23364.30769624  .00003104  00000-0  26779-3 0  9998,2 56492  69.9997 322.4728 0003072 248.1532 111.9301 14.98339136 36341,6950.165,96.106,574.165,569.895,0.0
56492.0,STARLINK-5846,PAYLOAD,2023-12-30 21:48:17,14.98337541,0.0002765,70.0009,320.9585,242.6357,117.4521,2.0428e-05,1.51e-06,0.0,0 STARLINK-5846,1 56492U 23064AW  23364.90854162  .00000151  00000-0  20428-4 0  9991,2 56492  70.0009 320.9585 0002765 242.6357 117.4521 14.98337541 36437,6950.17,96.107,573.956,570.113,0.0
56492.0,STARLINK-5846,PAYLOAD,2023-12-31 02:36:42,14.9833686,0.0002909,70.0009,320.4553,234.5998,125.489,-1.8668e-05,-3.16e-06,0.0,0 STARLINK-5846,1 56492U 23064AW  23365.10882149 -.00000316  00000-0 -18668-4 0  9998,2 56492  70.0009 320.4553 0002909 234.5998 125.4890 14.98336860 36822,6950.172,96.107,574.058,570.015,0.0
56492.0,STARLINK-5846,PAYLOAD,2023-12-31 21:50:18,14.98338589,0.0002712,70.0004,318.4329,247.4109,112.6763,-9.9973e-05,-1.286e-05,0.0,0 STARLINK-5846,1 56492U 23064AW  23365.90993979 -.00001286  00000-0 -99973-4 0  9995,2 56492  70.0004 318.4329 0002712 247.4109 112.6763 14.98338589 36584,6950.166,96.106,573.916,570.146,0.0
56492.0,STARLINK-5846,PAYLOAD,2024-01-01 02:38:43,14.9833611,0.0002868,70.0,317.928,249.2345,110.8507,-9.6951e-05,-1.25e-05,0.0,0 STARLINK-5846,1 56492U 23064AW  24001.11022020 -.00001250  00000-0 -96951-4 0  9990,2 56492  70.0000 317.9280 0002868 249.2345 110.8507 14.98336110 36971,6950.174,96.107,574.032,570.046,0.0
56492.0,STARLINK-5846,PAYLOAD,2024-01-01 07:27:06,14.98340508,0.0002798,69.9999,317.4225,249.2849,110.801,-5.9691e-05,-8.05e-06,0.0,0 STARLINK-5846,1 56492U 23064AW  24001.31049519 -.00000805  00000-0 -59691-4 0  9999,2 56492  69.9999 317.4225 0002798 249.2849 110.8010 14.98340508 36649,6950.16,96.106,573.97,570.081,0.0
56492.0,STARLINK-5846,PAYLOAD,2024-01-01 21:52:19,14.98323709,0.0002703,70.0003,315.9073,250.0547,110.0321,0.00014324,1.616e-05,0.0,0 STARLINK-5846,1 56492U 23064AW  24001.91133670  .00001616  00000-0  14324-3 0  9999,2 56492  70.0003 315.9073 0002703 250.0547 110.0321 14.98323709 36734,6950.212,96.107,573.956,570.199,0.0
56492.0,STARLINK-5846,PAYLOAD,2024-01-02 04:16:51,14.98330567,0.0002619,70.0002,315.2341,249.0563,111.0316,5.4231e-05,5.54e-06,0.0,0 STARLINK-5846,1 56492U 23064AW  24002.17837561  .00000554  00000-0  54231-4 0  9990,2 56492  70.0002 315.2341 0002619 249.0563 111.0316 14.98330567 37136,6950.191,96.107,573.876,570.236,0.0
56492.0,STARLINK-5846,PAYLOAD,2024-01-02 05:52:59,14.98332223,0.0002563,70.0003,315.066,249.1298,110.9587,5.7501e-05,5.93e-06,0.0,0 STARLINK-5846,1 56492U 23064AW  24002.24513451  .00000593  00000-0  57501-4 0  9993,2 56492  70.0003 315.0660 0002563 249.1298 110.9587 14.98332223 36782,6950.186,96.107,573.832,570.27,0.0
56492.0,STARLINK-5846,PAYLOAD,2024-01-02 21:54:20,14.98330351,0.0002456,70.0007,313.3832,243.554,116.5367,4.2245e-06,-4.3e-07,0.0,0 STARLINK-5846,1 56492U 23064AW  24002.91273568 -.00000043  00000-0  42245-5 0  9990,2 56492  70.0007 313.3832 0002456 243.5540 116.5367 14.98330351 36886,6950.192,96.107,573.764,570.35,0.0
56492.0,STARLINK-5846,PAYLOAD,2024-01-03 05:55:00,14.98331483,0.0002835,69.9994,312.5403,260.1353,99.9486,1.645e-05,1.03e-06,0.0,0 STARLINK-5846,1 56492U 23064AW  24003.24653472  .00000103  00000-0  16450-4 0  9997,2 56492  69.9994 312.5403 0002835 260.1353  99.9486 14.98331483 37290,6950.188,96.107,574.024,570.083,0.0
